STARLINK-31802          
1 59636U 24082F   26067.60755837  .00000589  00000+0  30949-4 0  9997
2 59636  42.9999 146.1577 0001721 175.8159 184.2708 15.27580835104640
BANDWAGON-2 OBJECT D    
1 62380U 24247D   26068.52261193  .00011259  00000+0  40119-3 0  9994
2 62380  44.9954 115.6710 0003488 351.1453   8.9368 15.29076102 67732
