[{"OBJECT_NAME":"STARLINK-31802","OBJECT_ID":"2024-082F","EPOCH":"2026-03-08T14:34:53.043168","MEAN_MOTION":15.27580835,"ECCENTRICITY":0.00017216,"INCLINATION":42.9999,"RA_OF_ASC_NODE":146.1577,"ARG_OF_PERICENTER":175.8159,"MEAN_ANOMALY":184.2708,"EPHEMERIS_TYPE":0,"CLASSIFICATION_TYPE":"U","NORAD_CAT_ID":59636,"ELEMENT_SET_NO":999,"REV_AT_EPOCH":10464,"BSTAR":3.0949437e-5,"MEAN_MOTION_DOT":5.89e-6,"MEAN_MOTION_DDOT":0},{"OBJECT_NAME":"BANDWAGON-2 OBJECT D","OBJECT_ID":"2024-247D","EPOCH":"2026-03-09T12:32:33.670752","MEAN_MOTION":15.29076102,"ECCENTRICITY":0.00034883,"INCLINATION":44.9954,"RA_OF_ASC_NODE":115.671,"ARG_OF_PERICENTER":351.1453,"MEAN_ANOMALY":8.9368,"EPHEMERIS_TYPE":0,"CLASSIFICATION_TYPE":"U","NORAD_CAT_ID":62380,"ELEMENT_SET_NO":999,"REV_AT_EPOCH":6773,"BSTAR":0.00040119131,"MEAN_MOTION_DOT":0.00011259,"MEAN_MOTION_DDOT":0}]
